#cP2005  4  8 00 00 00.00000000    2880 *POS* WGS84 FIT DLR*
## 1317 432000.00000000    30.00000000 53468 0.0000000000000
+    1   L06  0  0  0  0  0  0  0  0  0  0  0  0  0  0  0  0
+          0  0  0  0  0  0  0  0  0  0  0  0  0  0  0  0  0
+          0  0  0  0  0  0  0  0  0  0  0  0  0  0  0  0  0
+          0  0  0  0  0  0  0  0  0  0  0  0  0  0  0  0  0
+          0  0  0  0  0  0  0  0  0  0  0  0  0  0  0  0  0
++         0  0  0  0  0  0  0  0  0  0  0  0  0  0  0  0  0
++         0  0  0  0  0  0  0  0  0  0  0  0  0  0  0  0  0
++         0  0  0  0  0  0  0  0  0  0  0  0  0  0  0  0  0
++         0  0  0  0  0  0  0  0  0  0  0  0  0  0  0  0  0
++         0  0  0  0  0  0  0  0  0  0  0  0  0  0  0  0  0
%c cc cc ccc ccc cccc cccc cccc cccc ccccc ccccc ccccc ccccc
%c cc cc ccc ccc cccc cccc cccc cccc ccccc ccccc ccccc ccccc
%f   .0000000   .000000000   .00000000000   .000000000000000
%f   .0000000   .000000000   .00000000000   .000000000000000
%i    0    0    0    0      0      0      0      0         0
%i    0    0    0    0      0      0      0      0         0
/* NOTE: CCCCCCCCCCCCCCCCCCCCCCCCCCCCCCCCCCCCCCCCCCCCCCCCCCC
/* CCCCCCCCCCCCCCCCCCCCCCCCCCCCCCCCCCCCCCCCCCCCCCCCCCCCCCCCC
/* CCCCCCCCCCCCCCCCCCCCCCCCCCCCCCCCCCCCCCCCCCCCCCCCCCCCCCCCC
/* CCCCCCCCCCCCCCCCCCCCCCCCCCCCCCCCCCCCCCCCCCCCCCCCCCCCCCCCC
*  2005 04 08 23 15 00.00000000
PL06   3397.781026    946.667301  -5750.123105 999999.000000
*  2005 04 08 23 15 30.00000000
PL06   3580.603695   1011.096185  -5626.777196 999999.000000
*  2005 04 08 23 16 00.00000000
PL06   3759.551779   1073.561200  -5496.860300 999999.000000
*  2005 04 08 23 16 30.00000000
PL06   3934.407826   1134.006988  -5360.522339 999999.000000
*  2005 04 08 23 17 00.00000000
PL06   4104.958728   1192.381419  -5217.920787 999999.000000
*  2005 04 08 23 17 30.00000000
PL06   4270.996013   1248.635642  -5069.220503 999999.000000
*  2005 04 08 23 18 00.00000000
PL06   4432.316113   1302.724124  -4914.593534 999999.000000
*  2005 04 08 23 18 30.00000000
PL06   4588.720609   1354.604680  -4754.218925 999999.000000
*  2005 04 08 23 19 00.00000000
PL06   4740.016472   1404.238499  -4588.282526 999999.000000
*  2005 04 08 23 19 30.00000000
PL06   4886.016320   1451.590170  -4416.976793 999999.000000
*  2005 04 08 23 20 00.00000000
PL06   5026.538658   1496.627704  -4240.500583 999999.000000
*  2005 04 08 23 20 30.00000000
PL06   5161.408122   1539.322548  -4059.058918 999999.000000
*  2005 04 08 23 21 00.00000000
PL06   5290.455697   1579.649601  -3872.862763 999999.000000
*  2005 04 08 23 21 30.00000000
PL06   5413.518942   1617.587207  -3682.128781 999999.000000
*  2005 04 08 23 22 00.00000000
PL06   5530.442202   1653.117161  -3487.079103 999999.000000
*  2005 04 08 23 22 30.00000000
PL06   5641.076822   1686.224694  -3287.941079 999999.000000
*  2005 04 08 23 23 00.00000000
PL06   5745.281362   1716.898472  -3084.947017 999999.000000
*  2005 04 08 23 23 30.00000000
PL06   5842.921785   1745.130585  -2878.333914 999999.000000
*  2005 04 08 23 24 00.00000000
PL06   5933.871654   1770.916529  -2668.343181 999999.000000
*  2005 04 08 23 24 30.00000000
PL06   6018.012299   1794.255188  -2455.220357 999999.000000
*  2005 04 08 23 25 00.00000000
PL06   6095.232999   1815.148803  -2239.214828 999999.000000
*  2005 04 08 23 25 30.00000000
PL06   6165.431137   1833.602938  -2020.579521 999999.000000
*  2005 04 08 23 26 00.00000000
PL06   6228.512343   1849.626440  -1799.570600 999999.000000
*  2005 04 08 23 26 30.00000000
PL06   6284.390614   1863.231397  -1576.447162 999999.000000
*  2005 04 08 23 27 00.00000000
PL06   6332.988443   1874.433089  -1351.470948 999999.000000
*  2005 04 08 23 27 30.00000000
PL06   6374.236961   1883.249944  -1124.906043 999999.000000
*  2005 04 08 23 28 00.00000000
PL06   6408.076057   1889.703484   -897.018532 999999.000000
*  2005 04 08 23 28 30.00000000
PL06   6434.454460   1893.818262   -668.076169 999999.000000
*  2005 04 08 23 29 00.00000000
PL06   6453.329814   1895.621793   -438.348049 999999.000000
*  2005 04 08 23 29 30.00000000
PL06   6464.668742   1895.144475   -208.104278 999999.000000
*  2005 04 08 23 30 00.00000000
PL06   6468.446887   1892.419526     22.384341 999999.000000
*  2005 04 08 23 30 30.00000000
PL06   6464.648961   1887.482910    252.846637 999999.000000
*  2005 04 08 23 31 00.00000000
PL06   6453.268770   1880.373256    483.011385 999999.000000
*  2005 04 08 23 31 30.00000000
PL06   6434.309254   1871.131772    712.607617 999999.000000
*  2005 04 08 23 32 00.00000000
PL06   6407.782528   1859.802165    941.364964 999999.000000
*  2005 04 08 23 32 30.00000000
PL06   6373.709877   1846.430554   1169.013997 999999.000000
*  2005 04 08 23 33 00.00000000
PL06   6332.121737   1831.065370   1395.286576 999999.000000
*  2005 04 08 23 33 30.00000000
PL06   6283.057658   1813.757257   1619.916164 999999.000000
*  2005 04 08 23 34 00.00000000
PL06   6226.566274   1794.558965   1842.638159 999999.000000
*  2005 04 08 23 34 30.00000000
PL06   6162.705241   1773.525250   2063.190215 999999.000000
*  2005 04 08 23 35 00.00000000
PL06   6091.541162   1750.712765   2281.312557 999999.000000
*  2005 04 08 23 35 30.00000000
PL06   6013.149524   1726.179963   2496.748278 999999.000000
*  2005 04 08 23 36 00.00000000
PL06   5927.614625   1699.986987   2709.243655 999999.000000
*  2005 04 08 23 36 30.00000000
PL06   5835.029494   1672.195555   2918.548469 999999.000000
*  2005 04 08 23 37 00.00000000
PL06   5735.495755   1642.868848   3124.416324 999999.000000
*  2005 04 08 23 37 30.00000000
PL06   5629.123507   1612.071400   3326.604927 999999.000000
*  2005 04 08 23 38 00.00000000
PL06   5516.031192   1579.868977   3524.876382 999999.000000
*  2005 04 08 23 38 30.00000000
PL06   5396.345452   1546.328466   3718.997480 999999.000000
*  2005 04 08 23 39 00.00000000
PL06   5270.200964   1511.517751   3908.739970 999999.000000
*  2005 04 08 23 39 30.00000000
PL06   5137.740276   1475.505599   4093.880826 999999.000000
*  2005 04 08 23 40 00.00000000
PL06   4999.113633   1438.361552   4274.202495 999999.000000
*  2005 04 08 23 40 30.00000000
PL06   4854.478807   1400.155823   4449.493148 999999.000000
*  2005 04 08 23 41 00.00000000
PL06   4704.000926   1360.959175   4619.546936 999999.000000
*  2005 04 08 23 41 30.00000000
PL06   4547.852266   1320.842790   4784.164257 999999.000000
*  2005 04 08 23 42 00.00000000
PL06   4386.212034   1279.878141   4943.151974 999999.000000
*  2005 04 08 23 42 30.00000000
PL06   4219.266155   1238.136876   5096.323640 999999.000000
*  2005 04 08 23 43 00.00000000
PL06   4047.207051   1195.690724   5243.499722 999999.000000
*  2005 04 08 23 43 30.00000000
PL06   3870.233397   1152.611370   5384.507815 999999.000000
*  2005 04 08 23 44 00.00000000
PL06   3688.549865   1108.970348   5519.182836 999999.000000
*  2005 04 08 23 44 30.00000000
PL06   3502.366873   1064.838920   5647.367191 999999.000000
*  2005 04 08 23 45 00.00000000
PL06   3311.900346   1020.287970   5768.910944 999999.000000
*  2005 04 08 23 45 30.00000000
PL06   3117.371454    975.387904   5883.671993 999999.000000
*  2005 04 08 23 46 00.00000000
PL06   2919.006344    930.208539   5991.516215 999999.000000
*  2005 04 08 23 46 30.00000000
PL06   2717.035885    884.819009   6092.317614 999999.000000
*  2005 04 08 23 47 00.00000000
PL06   2511.695394    839.287664   6185.958467 999999.000000
*  2005 04 08 23 47 30.00000000
PL06   2303.224356    793.681967   6272.329455 999999.000000
*  2005 04 08 23 48 00.00000000
PL06   2091.866156    748.068393   6351.329787 999999.000000
*  2005 04 08 23 48 30.00000000
PL06   1877.867782    702.512338   6422.867318 999999.000000
*  2005 04 08 23 49 00.00000000
PL06   1661.479526    657.078029   6486.858654 999999.000000
*  2005 04 08 23 49 30.00000000
PL06   1442.954687    611.828442   6543.229236 999999.000000
*  2005 04 08 23 50 00.00000000
PL06   1222.549273    566.825217   6591.913418 999999.000000
*  2005 04 08 23 50 30.00000000
PL06   1000.521696    522.128571   6632.854538 999999.000000
*  2005 04 08 23 51 00.00000000
PL06    777.132476    477.797222   6666.004972 999999.000000
*  2005 04 08 23 51 30.00000000
PL06    552.643940    433.888309   6691.326195 999999.000000
*  2005 04 08 23 52 00.00000000
PL06    327.319906    390.457316   6708.788821 999999.000000
*  2005 04 08 23 52 30.00000000
PL06    101.425381    347.558001   6718.372629 999999.000000
*  2005 04 08 23 53 00.00000000
PL06   -124.773754    305.242336   6720.066589 999999.000000
*  2005 04 08 23 53 30.00000000
PL06   -351.011058    263.560438   6713.868871 999999.000000
*  2005 04 08 23 54 00.00000000
PL06   -577.019840    222.560510   6699.786837 999999.000000
*  2005 04 08 23 54 30.00000000
PL06   -802.533469    182.288788   6677.837040 999999.000000
*  2005 04 08 23 55 00.00000000
PL06  -1027.285687    142.789492   6648.045200 999999.000000
*  2005 04 08 23 55 30.00000000
PL06  -1251.010927    104.104781   6610.446179 999999.000000
*  2005 04 08 23 56 00.00000000
PL06  -1473.444617     66.274699   6565.083937 999999.000000
*  2005 04 08 23 56 30.00000000
PL06  -1694.323486     29.337141   6512.011488 999999.000000
*  2005 04 08 23 57 00.00000000
PL06  -1913.385887     -6.672190   6451.290848 999999.000000
*  2005 04 08 23 57 30.00000000
PL06  -2130.372098    -41.719808   6382.992962 999999.000000
*  2005 04 08 23 58 00.00000000
PL06  -2345.024632    -75.774479   6307.197628 999999.000000
*  2005 04 08 23 58 30.00000000
PL06  -2557.088546   -108.807241   6223.993411 999999.000000
*  2005 04 08 23 59 00.00000000
PL06  -2766.311738   -140.791433   6133.477548 999999.000000
*  2005 04 08 23 59 30.00000000
PL06  -2972.445256   -171.702712   6035.755839 999999.000000
EOF
